{
 "generated_at": "2026-07-02T08:12:02Z",
 "sources": [
  {
   "name": "CelesTrak",
   "url": "https://celestrak.org/NORAD/elements/",
   "license": "frei verfügbar; Attribution. Ursprünglich USSPACECOM/Space-Track."
  },
  {
   "name": "GCAT (J. McDowell, planet4589.org)",
   "url": "https://planet4589.org/space/gcat/",
   "license": "CC-BY 4.0"
  }
 ],
 "satellites": [
  {
   "norad": 43226,
   "name": "GOES 17",
   "intl": "2018-022A",
   "group": "weather",
   "gcat": {
    "class": "C",
    "category": "MET",
    "owner": "NOAA",
    "state": "US"
   },
   "omm": {
    "OBJECT_NAME": "GOES 17",
    "OBJECT_ID": "2018-022A",
    "EPOCH": "2026-07-01T22:09:31.632192",
    "MEAN_MOTION": 1.00271957,
    "ECCENTRICITY": 0.00007375,
    "INCLINATION": 0.9725,
    "RA_OF_ASC_NODE": 85.4803,
    "ARG_OF_PERICENTER": 39.6239,
    "MEAN_ANOMALY": 37.7514,
    "EPHEMERIS_TYPE": 0,
    "CLASSIFICATION_TYPE": "U",
    "NORAD_CAT_ID": 43226,
    "ELEMENT_SET_NO": 999,
    "REV_AT_EPOCH": 3057,
    "BSTAR": 0,
    "MEAN_MOTION_DOT": -0.00000173,
    "MEAN_MOTION_DDOT": 0
   }
  },
  {
   "norad": 51850,
   "name": "GOES 18",
   "intl": "2022-021A",
   "group": "weather",
   "gcat": {
    "class": "C",
    "category": "MET",
    "owner": "NOAA",
    "state": "US"
   },
   "omm": {
    "OBJECT_NAME": "GOES 18",
    "OBJECT_ID": "2022-021A",
    "EPOCH": "2026-07-01T18:30:41.125248",
    "MEAN_MOTION": 1.00271354,
    "ECCENTRICITY": 0.00005606,
    "INCLINATION": 0.0058,
    "RA_OF_ASC_NODE": 307.6791,
    "ARG_OF_PERICENTER": 188.3702,
    "MEAN_ANOMALY": 284.4375,
    "EPHEMERIS_TYPE": 0,
    "CLASSIFICATION_TYPE": "U",
    "NORAD_CAT_ID": 51850,
    "ELEMENT_SET_NO": 999,
    "REV_AT_EPOCH": 673,
    "BSTAR": 0,
    "MEAN_MOTION_DOT": 0.00000107,
    "MEAN_MOTION_DDOT": 0
   }
  },
  {
   "norad": 60133,
   "name": "GOES 19",
   "intl": "2024-119A",
   "group": "weather",
   "gcat": {
    "class": "C",
    "category": "MET",
    "owner": "NOAA",
    "state": "US"
   },
   "omm": {
    "OBJECT_NAME": "GOES 19",
    "OBJECT_ID": "2024-119A",
    "EPOCH": "2026-07-01T22:56:35.930688",
    "MEAN_MOTION": 1.00271416,
    "ECCENTRICITY": 0.00005237,
    "INCLINATION": 0.0102,
    "RA_OF_ASC_NODE": 90.1119,
    "ARG_OF_PERICENTER": 65.5493,
    "MEAN_ANOMALY": 33.3013,
    "EPHEMERIS_TYPE": 0,
    "CLASSIFICATION_TYPE": "U",
    "NORAD_CAT_ID": 60133,
    "ELEMENT_SET_NO": 999,
    "REV_AT_EPOCH": 711,
    "BSTAR": 0,
    "MEAN_MOTION_DOT": -0.00000238,
    "MEAN_MOTION_DDOT": 0
   }
  },
  {
   "norad": 41875,
   "name": "GOKTURK 1A",
   "intl": "2016-073A",
   "group": "resource",
   "gcat": {
    "class": "D",
    "category": "IMG",
    "owner": "MSBTR",
    "state": "TR"
   },
   "omm": {
    "OBJECT_NAME": "GOKTURK 1A",
    "OBJECT_ID": "2016-073A",
    "EPOCH": "2026-07-01T22:51:40.169664",
    "MEAN_MOTION": 14.62785478,
    "ECCENTRICITY": 0.00014341,
    "INCLINATION": 98.1239,
    "RA_OF_ASC_NODE": 77.3953,
    "ARG_OF_PERICENTER": 76.5871,
    "MEAN_ANOMALY": 283.549,
    "EPHEMERIS_TYPE": 0,
    "CLASSIFICATION_TYPE": "U",
    "NORAD_CAT_ID": 41875,
    "ELEMENT_SET_NO": 999,
    "REV_AT_EPOCH": 51098,
    "BSTAR": 0.00012983913,
    "MEAN_MOTION_DOT": 0.00000616,
    "MEAN_MOTION_DDOT": 0
   }
  },
  {
   "norad": 39030,
   "name": "GOKTURK 2",
   "intl": "2012-073A",
   "group": "resource",
   "gcat": {
    "class": "D",
    "category": "IMG",
    "owner": "MSBTR",
    "state": "TR"
   },
   "omm": {
    "OBJECT_NAME": "GOKTURK 2",
    "OBJECT_ID": "2012-073A",
    "EPOCH": "2026-07-01T22:21:45.417024",
    "MEAN_MOTION": 14.75559419,
    "ECCENTRICITY": 0.00010784,
    "INCLINATION": 97.6808,
    "RA_OF_ASC_NODE": 19.6236,
    "ARG_OF_PERICENTER": 61.4974,
    "MEAN_ANOMALY": 298.6345,
    "EPHEMERIS_TYPE": 0,
    "CLASSIFICATION_TYPE": "U",
    "NORAD_CAT_ID": 39030,
    "ELEMENT_SET_NO": 999,
    "REV_AT_EPOCH": 72668,
    "BSTAR": 0.00015416846,
    "MEAN_MOTION_DOT": 0.00001003,
    "MEAN_MOTION_DDOT": 0
   }
  },
  {
   "norad": 33492,
   "name": "GOSAT (IBUKI)",
   "intl": "2009-002A",
   "group": "resource",
   "gcat": {
    "class": "C",
    "category": "EOSCI",
    "owner": "JAXA",
    "state": "J"
   },
   "omm": {
    "OBJECT_NAME": "GOSAT (IBUKI)",
    "OBJECT_ID": "2009-002A",
    "EPOCH": "2026-06-30T18:35:41.844768",
    "MEAN_MOTION": 14.67536972,
    "ECCENTRICITY": 0.00012163,
    "INCLINATION": 98.0904,
    "RA_OF_ASC_NODE": 292.6868,
    "ARG_OF_PERICENTER": 80.5142,
    "MEAN_ANOMALY": 279.62,
    "EPHEMERIS_TYPE": 0,
    "CLASSIFICATION_TYPE": "U",
    "NORAD_CAT_ID": 33492,
    "ELEMENT_SET_NO": 999,
    "REV_AT_EPOCH": 93345,
    "BSTAR": -0.000001958554,
    "MEAN_MOTION_DOT": -5.9e-7,
    "MEAN_MOTION_DDOT": 0
   }
  },
  {
   "norad": 64694,
   "name": "GOSAT-GW (IBUKI GW)",
   "intl": "2025-141A",
   "group": "resource",
   "gcat": {
    "class": "C",
    "category": "EOSCI",
    "owner": "JAXA",
    "state": "J"
   },
   "omm": {
    "OBJECT_NAME": "GOSAT-GW (IBUKI GW)",
    "OBJECT_ID": "2025-141A",
    "EPOCH": "2026-07-01T22:00:58.558752",
    "MEAN_MOTION": 14.67556421,
    "ECCENTRICITY": 0.00014661,
    "INCLINATION": 98.0568,
    "RA_OF_ASC_NODE": 119.995,
    "ARG_OF_PERICENTER": 85.749,
    "MEAN_ANOMALY": 274.3882,
    "EPHEMERIS_TYPE": 0,
    "CLASSIFICATION_TYPE": "U",
    "NORAD_CAT_ID": 64694,
    "ELEMENT_SET_NO": 999,
    "REV_AT_EPOCH": 5400,
    "BSTAR": 0.00012733054,
    "MEAN_MOTION_DOT": 0.00000675,
    "MEAN_MOTION_DDOT": 0
   }
  },
  {
   "norad": 39574,
   "name": "GPM-CORE",
   "intl": "2014-009C",
   "group": "resource",
   "gcat": {
    "class": "C",
    "category": "EOSCI",
    "owner": "GSFC",
    "state": "US"
   },
   "omm": {
    "OBJECT_NAME": "GPM-CORE",
    "OBJECT_ID": "2014-009C",
    "EPOCH": "2026-07-01T18:37:53.089824",
    "MEAN_MOTION": 15.4487345,
    "ECCENTRICITY": 0.00112929,
    "INCLINATION": 64.9714,
    "RA_OF_ASC_NODE": 259.2565,
    "ARG_OF_PERICENTER": 257.4312,
    "MEAN_ANOMALY": 102.5566,
    "EPHEMERIS_TYPE": 0,
    "CLASSIFICATION_TYPE": "U",
    "NORAD_CAT_ID": 39574,
    "ELEMENT_SET_NO": 999,
    "REV_AT_EPOCH": 70006,
    "BSTAR": 0.00025231533,
    "MEAN_MOTION_DOT": 0.00011702,
    "MEAN_MOTION_DDOT": 0
   }
  },
  {
   "norad": 31113,
   "name": "HAIYANG-1B",
   "intl": "2007-010A",
   "group": "resource",
   "gcat": {
    "class": null,
    "category": null,
    "owner": null,
    "state": null
   },
   "omm": {
    "OBJECT_NAME": "HAIYANG-1B",
    "OBJECT_ID": "2007-010A",
    "EPOCH": "2026-07-01T21:33:03.250656",
    "MEAN_MOTION": 14.31030546,
    "ECCENTRICITY": 0.00139812,
    "INCLINATION": 98.3502,
    "RA_OF_ASC_NODE": 164.173,
    "ARG_OF_PERICENTER": 152.9001,
    "MEAN_ANOMALY": 207.2915,
    "EPHEMERIS_TYPE": 0,
    "CLASSIFICATION_TYPE": "U",
    "NORAD_CAT_ID": 31113,
    "ELEMENT_SET_NO": 999,
    "REV_AT_EPOCH": 274,
    "BSTAR": 0.000051588436,
    "MEAN_MOTION_DOT": 9.4e-7,
    "MEAN_MOTION_DDOT": 0
   }
  },
  {
   "norad": 37781,
   "name": "HAIYANG-2A",
   "intl": "2011-043A",
   "group": "resource",
   "gcat": {
    "class": null,
    "category": null,
    "owner": null,
    "state": null
   },
   "omm": {
    "OBJECT_NAME": "HAIYANG-2A",
    "OBJECT_ID": "2011-043A",
    "EPOCH": "2026-07-01T05:39:57.502080",
    "MEAN_MOTION": 13.73990655,
    "ECCENTRICITY": 0.0004752,
    "INCLINATION": 99.339,
    "RA_OF_ASC_NODE": 184.5963,
    "ARG_OF_PERICENTER": 61.7209,
    "MEAN_ANOMALY": 298.4419,
    "EPHEMERIS_TYPE": 0,
    "CLASSIFICATION_TYPE": "U",
    "NORAD_CAT_ID": 37781,
    "ELEMENT_SET_NO": 999,
    "REV_AT_EPOCH": 74858,
    "BSTAR": 0.00021773,
    "MEAN_MOTION_DOT": 0.00000161,
    "MEAN_MOTION_DDOT": 0
   }
  }
 ]
}
